H1 CPF 01  gfz 2022 02 14 01  5451 tandemx   
H2 1003001  6202 36605    2022 02 14 00 59 42 2022 02 19 00 00 42   120 1 1  0 0 0
H9
10 0 59627  75582.000000  0    4599336.824  -3922845.209  -3312930.261
10 0 59627  75702.000000  0    4762830.502  -4312790.964  -2494722.155
10 0 59627  75822.000000  0    4837098.319  -4629622.525  -1632710.063
10 0 59627  75942.000000  0    4822113.103  -4866182.379   -742005.282
10 0 59627  76062.000000  0    4719529.976  -5016732.490    161747.664
10 0 59627  76182.000000  0    4532636.512  -5077090.552   1062652.256
10 0 59627  76302.000000  0    4266270.287  -5044735.995   1944848.444
10 0 59627  76422.000000  0    3926703.474  -4918881.826   2792800.707
10 0 59627  76542.000000  0    3521500.177  -4700512.317   3591579.142
10 0 59627  76662.000000  0    3059348.549  -4392384.053   4327128.831
10 0 59627  76782.000000  0    2549872.829  -3998990.686   4986520.517
10 0 59627  76902.000000  0    2003430.331  -3526493.147   5558178.217
10 0 59627  77022.000000  0    1430897.857  -2982617.430   6032080.674
10 0 59627  77142.000000  0     843452.262  -2376521.509   6399932.022
10 0 59627  77262.000000  0     252350.627  -1718636.494   6655300.565
10 0 59627  77382.000000  0    -331285.664  -1020484.243   6793724.757
10 0 59627  77502.000000  0    -896678.999   -294473.679   6812786.983
10 0 59627  77622.000000  0   -1433593.576    446320.176   6712152.882
10 0 59627  77742.000000  0   -1932520.127   1188391.130   6493576.740
10 0 59627  77862.000000  0   -2384844.245   1918047.069   6160872.866
10 0 59627  77982.000000  0   -2782995.990   2621661.952   5719853.313
10 0 59627  78102.000000  0   -3120578.436   3285931.336   5178232.737
10 0 59627  78222.000000  0   -3392473.993   3898126.523   4545499.916
10 0 59627  78342.000000  0   -3594925.275   4446343.274   3832757.053
10 0 59627  78462.000000  0   -3725588.770   4919739.593   3052528.314
10 0 59627  78582.000000  0   -3783559.806   5308757.225   2218540.004
10 0 59627  78702.000000  0   -3769367.563   5605319.992   1345475.991
10 0 59627  78822.000000  0   -3684940.681   5803005.086    448715.001
10 0 59627  78942.000000  0   -3533545.255   5897184.823   -455947.126
10 0 59627  79062.000000  0   -3319694.139   5885131.910  -1352586.103
10 0 59627  79182.000000  0   -3049030.787   5766085.043  -2225440.095
10 0 59627  79302.000000  0   -2728188.612   5541273.059  -3059194.713
10 0 59627  79422.000000  0   -2364633.834   5213900.264  -3839254.953
10 0 59627  79542.000000  0   -1966495.373   4789092.604  -4552001.977
10 0 59627  79662.000000  0   -1542384.790   4273806.258  -5185026.631
10 0 59627  79782.000000  0   -1101212.775   3676704.582  -5727338.009
10 0 59627  79902.000000  0    -652004.236   3008004.334  -6169546.282
10 0 59627  80022.000000  0    -203715.971   2279293.482  -6504014.779
10 0 59627  80142.000000  0     234938.196   1503327.122  -6724979.591
10 0 59627  80262.000000  0     655651.867    693804.831  -6828639.561
10 0 59627  80382.000000  0    1050679.624   -134867.845  -6813214.819
10 0 59627  80502.000000  0    1412975.955   -967831.190  -6678973.309
10 0 59627  80622.000000  0    1736317.301  -1790031.027  -6428225.161
10 0 59627  80742.000000  0    2015407.078  -2586483.381  -6065287.610
10 0 59627  80862.000000  0    2245962.140  -3342542.020  -5596419.782
10 0 59627  80982.000000  0    2424779.553  -4044167.536  -5029726.305
10 0 59627  81102.000000  0    2549781.583  -4678189.616  -4375026.295
10 0 59627  81222.000000  0    2620038.018  -5232556.821  -3643693.803
10 0 59627  81342.000000  0    2635765.409  -5696573.158  -2848470.267
10 0 59627  81462.000000  0    2598303.201  -6061114.074  -2003248.423
10 0 59627  81582.000000  0    2510067.027  -6318816.813  -1122832.387
10 0 59627  81702.000000  0    2374478.725  -6464239.469   -222675.655
10 0 59627  81822.000000  0    2195874.027  -6493981.496    681396.319
10 0 59627  81942.000000  0    1979391.644  -6406765.470   1573470.967
10 0 59627  82062.000000  0    1730845.931  -6203476.537   2437838.911
10 0 59627  82182.000000  0    1456584.821  -5887156.002   3259279.498
10 0 59627  82302.000000  0    1163339.072  -5462952.362   4023335.353
10 0 59627  82422.000000  0     858065.538  -4938030.543   4716570.597
10 0 59627  82542.000000  0     547788.708  -4321443.421   5326809.018
10 0 59627  82662.000000  0     239443.615  -3623965.879   5843347.679
10 0 59627  82782.000000  0     -60274.410  -2857896.098   6257140.550
10 0 59627  82902.000000  0    -345051.363  -2036831.246   6560949.791
10 0 59627  83022.000000  0    -609084.242  -1175422.757   6749465.720
10 0 59627  83142.000000  0    -847196.890   -289113.225   6819395.230
10 0 59627  83262.000000  0   -1054940.152    606141.542   6769516.408
10 0 59627  83382.000000  0   -1228674.513   1494159.619   6600698.307
10 0 59627  83502.000000  0   -1365633.542   2358824.644   6315886.633
10 0 59627  83622.000000  0   -1463968.080   3184378.099   5920055.783
10 0 59627  83742.000000  0   -1522770.398   3955707.876   5420126.834
10 0 59627  83862.000000  0   -1542076.981   4658628.194   4824853.054
10 0 59627  83982.000000  0   -1522851.323   5280147.321   4144672.803
10 0 59627  84102.000000  0   -1466945.501   5808715.919   3391530.190
10 0 59627  84222.000000  0   -1377042.822   6234450.594   2578667.787
10 0 59627  84342.000000  0   -1256582.559   6549329.210   1720392.682
10 0 59627  84462.000000  0   -1109665.205   6747350.902    831819.899
10 0 59627  84582.000000  0    -940943.399   6824656.035    -71400.053
10 0 59627  84702.000000  0    -755500.799   6779605.671   -973364.731
10 0 59627  84822.000000  0    -558721.256   6612815.069  -1858210.988
10 0 59627  84942.000000  0    -356152.912   6327138.389  -2710402.925
10 0 59627  85062.000000  0    -153371.217   5927609.724  -3515009.033
10 0 59627  85182.000000  0      44156.701   5421343.413  -4257965.438
10 0 59627  85302.000000  0     231203.284   4817395.229  -4926320.587
10 0 59627  85422.000000  0     402904.060   4126588.385  -5508456.137
10 0 59627  85542.000000  0     554870.673   3361309.050  -5994281.265
10 0 59627  85662.000000  0     683290.422   2535275.752  -6375397.320
10 0 59627  85782.000000  0     785011.090   1663289.113  -6645231.195
10 0 59627  85902.000000  0     857609.835    760966.986  -6799137.793
10 0 59627  86022.000000  0     899444.621   -155532.076  -6834471.793
10 0 59627  86142.000000  0     909688.044  -1069793.063  -6750627.905
10 0 59627  86262.000000  0     888342.534  -1965431.297  -6549048.233
10 0 59627  86382.000000  0     836237.745  -2826377.209  -6233200.190
10 0 59628    102.000000  0     755009.792  -3637159.648  -5808525.903
10 0 59628    222.000000  0     647061.378  -4383182.991  -5282357.299
10 0 59628    342.000000  0     515505.415  -5050990.459  -4663800.012
10 0 59628    462.000000  0     364091.492  -5628512.121  -3963587.650
10 0 59628    582.000000  0     197116.487  -6105292.217  -3193905.107
10 0 59628    702.000000  0      19321.235  -6472689.329  -2368183.677
10 0 59628    822.000000  0    -164224.575  -6724046.345  -1500870.943
10 0 59628    942.000000  0    -348247.061  -6854824.043   -607177.063
10 0 59628   1062.000000  0    -527399.200  -6862693.303    297196.198
10 0 59628   1182.000000  0    -696395.070  -6747583.994   1196337.534
10 0 59628   1302.000000  0    -850144.055  -6511689.678   2074414.308
10 0 59628   1422.000000  0    -983881.336  -6159425.961   2915960.935
10 0 59628   1542.000000  0   -1093290.417  -5697343.470   3706160.357
10 0 59628   1662.000000  0   -1174614.888  -5133997.224   4431110.597
10 0 59628   1782.000000  0   -1224758.002  -4479778.746   5078071.008
10 0 59628   1902.000000  0   -1241366.197  -3746715.702   5635686.443
10 0 59628   2022.000000  0   -1222895.888  -2948240.637   6094185.155
10 0 59628   2142.000000  0   -1168660.665  -2098935.528   6445543.804
10 0 59628   2262.000000  0   -1078858.838  -1214261.362   6683620.534
10 0 59628   2382.000000  0    -954582.217   -310274.422   6804257.355
10 0 59628   2502.000000  0    -797805.623    596666.196   6805348.071
10 0 59628   2622.000000  0    -611355.646   1490194.022   6686873.157
10 0 59628   2742.000000  0    -398859.413   2354230.176   6450900.174
10 0 59628   2862.000000  0    -164674.700   3173272.425   6101549.808
10 0 59628   2982.000000  0      86197.111   3932674.319   5644928.534
10 0 59628   3102.000000  0     348213.962   4618910.491   5089027.343
10 0 59628   3222.000000  0     615411.230   5219823.329   4443588.605
10 0 59628   3342.000000  0     881531.811   5724846.668   3719938.961
10 0 59628   3462.000000  0    1140164.536   6125198.495   2930795.716
10 0 59628   3582.000000  0    1384892.987   6414049.089   2090045.186
10 0 59628   3702.000000  0    1609444.951   6586644.690   1212491.526
10 0 59628   3822.000000  0    1807841.661   6640391.771    313590.258
10 0 59628   3942.000000  0    1974542.708   6574896.826   -590832.014
10 0 59628   4062.000000  0    2104582.258   6391962.474  -1484864.285
10 0 59628   4182.000000  0    2193693.958   6095540.257  -2352798.623
10 0 59628   4302.000000  0    2238421.342   5691641.143  -3179412.852
10 0 59628   4422.000000  0    2236210.893   5188205.572  -3950242.432
10 0 59628   4542.000000  0    2185485.270   4594936.043  -4651834.680
10 0 59628   4662.000000  0    2085694.942   3923098.768  -5271979.815
10 0 59628   4782.000000  0    1937348.401   3185300.356  -5799915.964
10 0 59628   4902.000000  0    1742020.271   2395244.272  -6226506.762
10 0 59628   5022.000000  0    1502337.158   1567472.001  -6544387.855
10 0 59628   5142.000000  0    1221943.297    717095.829  -6748082.523
10 0 59628   5262.000000  0     905445.266   -140474.071  -6834087.204
10 0 59628   5382.000000  0     558336.295   -989804.144  -6800924.752
10 0 59628   5502.000000  0     186902.481  -1815708.487  -6649165.344
10 0 59628   5622.000000  0    -201887.439  -2603512.114  -6381417.759
99
